OBJECT_NAME,OBJECT_ID,EPOCH,MEAN_MOTION,ECCENTRICITY,INCLINATION,RA_OF_ASC_NODE,ARG_OF_PERICENTER,MEAN_ANOMALY,EPHEMERIS_TYPE,CLASSIFICATION_TYPE,NORAD_CAT_ID,ELEMENT_SET_NO,REV_AT_EPOCH,BSTAR,MEAN_MOTION_DOT,MEAN_MOTION_DDOT
KUIPER-00192,2026-072C,2026-05-17T04:00:01.998720,14.93243646,.0007086,51.8933,330.6591,288.9007,257.3672,0,U,68575,999,592,-.51961E-2,-.54758E-3,0
KUIPER-00193,2026-072D,2026-05-16T19:12:56.257632,15.38330357,.00028365,51.8781,328.5737,225.3454,134.7303,0,U,68576,999,655,.54856924E-3,.20719E-3,0
KUIPER-00194,2026-072E,2026-05-17T04:00:01.998720,15.03656893,.0002188,51.8897,328.9388,310.5045,350.2285,0,U,68577,999,528,-.74971E-2,-.102601E-2,0
KUIPER-00229,2026-072F,2026-05-17T04:00:01.998720,14.83901196,.0007664,51.8998,332.3196,293.1061,171.6247,0,U,68578,999,585,-.83455E-2,-.69541E-3,0
KUIPER-00230,2026-072G,2026-05-16T19:06:26.724096,15.37348723,.00015644,51.8777,328.5419,258.2364,101.8448,0,U,68579,999,655,.45138891E-3,.16427E-3,0
KUIPER-00231,2026-072H,2026-05-16T12:43:22.412928,15.38843780,.0004054,51.8771,329.7646,158.7511,201.3646,0,U,68580,999,651,.6939E-3,.26786E-3,0
KUIPER-00234,2026-072J,2026-05-17T04:00:01.998720,15.10369952,.000329,51.8893,328.2556,305.6454,239.4406,0,U,68581,999,384,-.18416E-2,-.30761E-3,0
KUIPER-00236,2026-072K,2026-05-16T19:11:37.268160,15.36564786,.0002599,51.8774,328.5689,223.7024,136.3757,0,U,68582,999,655,.47495832E-3,.16867E-3,0
KUIPER-00244,2026-072L,2026-05-16T22:10:08.173344,15.38636786,.0003548,51.8778,327.9013,257.5992,102.4599,0,U,68583,999,657,.58584E-3,.22385E-3,0
KUIPER-00253,2026-072M,2026-05-17T04:00:01.998720,15.36587517,.0004538,51.8733,326.8670,260.0384,289.3410,0,U,68584,999,314,-.30243E-1,-.1012655E-1,0
KUIPER-00254,2026-072N,2026-05-17T04:00:01.998720,15.26409087,.0006795,51.8771,327.2462,268.5822,76.9756,0,U,68585,999,573,-.17172E-2,-.45436E-3,0
KUIPER-00263,2026-072P,2026-05-16T22:10:16.916160,15.37583511,.0001456,51.8789,327.8986,216.6655,143.4233,0,U,68586,999,657,.61773E-3,.22818E-3,0
KUIPER-00269,2026-072Q,2026-05-16T19:15:09.661824,15.38306228,.00044598,51.8767,328.5816,246.5315,113.5204,0,U,68587,999,655,.6526227E-3,.24721E-3,0
KUIPER-00272,2026-072R,2026-05-17T04:00:01.998720,14.91397196,.0006068,51.8976,330.6715,287.2959,104.4645,0,U,68588,999,583,-.56982E-2,-.57273E-3,0
KUIPER-00285,2026-072S,2026-05-16T22:32:48.619104,15.38114032,.000782,51.8786,328.0008,264.5294,95.4801,0,U,68589,999,657,.8788E-3,.33274E-3,0
KUIPER-00286,2026-072T,2026-05-16T22:18:24.168960,15.38452786,.0004753,51.8743,327.9306,243.0146,117.0356,0,U,68590,999,657,.76115E-3,.29055E-3,0
KUIPER-00289,2026-072U,2026-05-16T21:53:05.993088,15.36634527,.0011233,51.8667,328.5272,275.8188,84.1518,0,U,68591,999,656,.47285E-3,.16857E-3,0
KUIPER-00290,2026-072V,2026-05-16T21:53:59.206848,15.36442848,.0011297,51.8655,328.5248,270.6916,89.2776,0,U,68592,999,656,.15757E-3,.5311E-4,0
KUIPER-00293,2026-072W,2026-05-17T04:00:01.998720,15.19945297,.0011742,51.8747,327.9852,281.3825,41.2266,0,U,68593,999,480,-.58049E-1,-.116869E-1,0
KUIPER-00294,2026-072X,2026-05-16T21:46:41.456064,15.36604559,.0010299,51.8702,328.5063,270.6047,89.3759,0,U,68594,999,656,.61325E-3,.21966E-3,0
KUIPER-00296,2026-072Y,2026-05-17T03:40:45.767136,15.37415169,.0008349,51.8705,327.1643,266.1011,93.9021,0,U,68595,999,660,.51297E-3,.18785E-3,0
KUIPER-00297,2026-072Z,2026-05-16T22:52:49.510848,15.27576282,.0010739,51.8694,328.8139,273.4475,86.5279,0,U,68596,999,656,.8788E-3,.23796E-3,0
KUIPER-00300,2026-072AA,2026-05-17T04:00:01.998720,15.32752062,.0007947,51.8700,327.1095,268.5478,164.8744,0,U,68597,999,498,-.40299E-3,-.13302E-3,0
KUIPER-00301,2026-072AB,2026-05-16T23:04:05.219328,15.37412204,.0008966,51.8620,328.1118,268.9371,91.0588,0,U,68598,999,657,.58544E-3,.21504E-3,0
KUIPER-00304,2026-072AC,2026-05-16T23:09:22.430016,15.37091450,.0009655,51.8672,328.1393,269.1827,90.8053,0,U,68599,999,657,.34548E-3,.12382E-3,0
KUIPER-00317,2026-072AD,2026-05-16T21:25:42.646944,15.37432285,.0008846,51.8719,328.4171,263.8993,96.0986,0,U,68600,999,656,.61216E-3,.2252E-3,0
KUIPER-00320,2026-072AE,2026-05-17T04:16:36.167232,15.36061672,.0012098,51.8624,327.2885,263.5727,96.3881,0,U,68601,999,660,-.45401E-3,-.16589E-3,0
STARLINK-37135,2026-073A,2026-05-17T02:37:29.332992,15.75169591,.0001483,97.2826,336.2014,134.7877,225.3509,0,U,68602,999,632,.11757E-2,.178789E-2,0
STARLINK-37189,2026-073B,2026-05-16T19:50:24.008928,15.75393561,.00018627,97.2833,335.9739,132.5095,227.6328,0,U,68603,999,628,.19448379E-2,.303149E-2,0
STARLINK-37130,2026-073C,2026-05-17T02:22:44.830272,15.75186137,.000141,97.2846,336.2162,167.5496,192.5804,0,U,68604,999,632,.8828E-3,.133602E-2,0
