KUIPER-00192            
1 68575U 26072C   26137.16668980 -.00054758  00000+0 -51961-2 0  9995
2 68575  51.8933 330.6591 0007086 288.9007 257.3672 14.93243646  5924
KUIPER-00193            
1 68576U 26072D   26136.80065113  .00020719  00000+0  54857-3 0  9991
2 68576  51.8781 328.5737 0002836 225.3454 134.7303 15.38330357  6558
KUIPER-00194            
1 68577U 26072E   26137.16668980 -.00102601  00000+0 -74971-2 0  9994
2 68577  51.8897 328.9388 0002188 310.5045 350.2285 15.03656893  5287
KUIPER-00229            
1 68578U 26072F   26137.16668980 -.00069541  00000+0 -83455-2 0  9997
2 68578  51.8998 332.3196 0007664 293.1061 171.6247 14.83901196  5856
KUIPER-00230            
1 68579U 26072G   26136.79614264  .00016427  00000+0  45139-3 0  9993
2 68579  51.8777 328.5419 0001564 258.2364 101.8448 15.37348723  6555
KUIPER-00231            
1 68580U 26072H   26136.53012052  .00026786  00000+0  69390-3 0  9998
2 68580  51.8771 329.7646 0004054 158.7511 201.3646 15.38843780  6517
KUIPER-00234            
1 68581U 26072J   26137.16668980 -.00030761  00000+0 -18416-2 0  9998
2 68581  51.8893 328.2556 0003290 305.6454 239.4406 15.10369952  3840
KUIPER-00236            
1 68582U 26072K   26136.79973690  .00016867  00000+0  47496-3 0  9994
2 68582  51.8774 328.5689 0002599 223.7024 136.3757 15.36564786  6558
KUIPER-00244            
1 68583U 26072L   26136.92370571  .00022385  00000+0  58584-3 0  9991
2 68583  51.8778 327.9013 0003548 257.5992 102.4599 15.38636786  6573
KUIPER-00253            
1 68584U 26072M   26137.16668980 -.01012655  00000+0 -30243-1 0  9995
2 68584  51.8733 326.8670 0004538 260.0384 289.3410 15.36587517  3148
KUIPER-00254            
1 68585U 26072N   26137.16668980 -.00045436  00000+0 -17172-2 0  9995
2 68585  51.8771 327.2462 0006795 268.5822  76.9756 15.26409087  5736
KUIPER-00263            
1 68586U 26072P   26136.92380690  .00022818  00000+0  61773-3 0  9992
2 68586  51.8789 327.8986 0001456 216.6655 143.4233 15.37583511  6570
KUIPER-00269            
1 68587U 26072Q   26136.80219516  .00024721  00000+0  65262-3 0  9990
2 68587  51.8767 328.5816 0004459 246.5315 113.5204 15.38306228  6551
KUIPER-00272            
1 68588U 26072R   26137.16668980 -.00057273  00000+0 -56982-2 0  9992
2 68588  51.8976 330.6715 0006068 287.2959 104.4645 14.91397196  5830
KUIPER-00285            
1 68589U 26072S   26136.93945161  .00033274  00000+0  87880-3 0  9991
2 68589  51.8786 328.0008 0007820 264.5294  95.4801 15.38114032  6576
KUIPER-00286            
1 68590U 26072T   26136.92944640  .00029055  00000+0  76115-3 0  9994
2 68590  51.8743 327.9306 0004753 243.0146 117.0356 15.38452786  6577
KUIPER-00289            
1 68591U 26072U   26136.91187492  .00016857  00000+0  47285-3 0  9990
2 68591  51.8667 328.5272 0011233 275.8188  84.1518 15.36634527  6568
KUIPER-00290            
1 68592U 26072V   26136.91249082  .00005311  00000+0  15757-3 0  9997
2 68592  51.8655 328.5248 0011297 270.6916  89.2776 15.36442848  6566
KUIPER-00293            
1 68593U 26072W   26137.16668980 -.01168690  00000+0 -58049-1 0  9990
2 68593  51.8747 327.9852 0011742 281.3825  41.2266 15.19945297  4800
KUIPER-00294            
1 68594U 26072X   26136.90742426  .00021966  00000+0  61325-3 0  9994
2 68594  51.8702 328.5063 0010299 270.6047  89.3759 15.36604559  6563
KUIPER-00296            
1 68595U 26072Y   26137.15330749  .00018785  00000+0  51297-3 0  9996
2 68595  51.8705 327.1643 0008349 266.1011  93.9021 15.37415169  6606
KUIPER-00297            
1 68596U 26072Z   26136.95335082  .00023796  00000+0  87880-3 0  9994
2 68596  51.8694 328.8139 0010739 273.4475  86.5279 15.27576282  6564
KUIPER-00300            
1 68597U 26072AA  26137.16668980 -.00013302  00000+0 -40299-3 0  9992
2 68597  51.8700 327.1095 0007947 268.5478 164.8744 15.32752062  4980
KUIPER-00301            
1 68598U 26072AB  26136.96117152  .00021504  00000+0  58544-3 0  9993
2 68598  51.8620 328.1118 0008966 268.9371  91.0588 15.37412204  6577
KUIPER-00304            
1 68599U 26072AC  26136.96484294  .00012382  00000+0  34548-3 0  9990
2 68599  51.8672 328.1393 0009655 269.1827  90.8053 15.37091450  6575
KUIPER-00317            
1 68600U 26072AD  26136.89285471  .00022520  00000+0  61216-3 0  9998
2 68600  51.8719 328.4171 0008846 263.8993  96.0986 15.37432285  6560
KUIPER-00320            
1 68601U 26072AE  26137.17819638 -.00016589  00000+0 -45401-3 0  9997
2 68601  51.8624 327.2885 0012098 263.5727  96.3881 15.36061672  6600
STARLINK-37135          
1 68602U 26073A   26137.10936728  .00178789  00000+0  11757-2 0  9997
2 68602  97.2826 336.2014 0001483 134.7877 225.3509 15.75169591  6326
STARLINK-37189          
1 68603U 26073B   26136.82666677  .00303149  00000+0  19448-2 0  9994
2 68603  97.2833 335.9739 0001862 132.5095 227.6328 15.75393561  6289
STARLINK-37130          
1 68604U 26073C   26137.09912998  .00133602  00000+0  88280-3 0  9991
2 68604  97.2846 336.2162 0001410 167.5496 192.5804 15.75186137  6323
